STARLINK-3139
1 19425C 21104T   21326.14742583 -.00865462  00000-0 -32274-2 0  3267
2 19425  53.2176  90.8285 0024428  64.8820 234.1422 15.87606700    19
